{"type":"FeatureCollection","features":[{"type":"Feature","properties":{"name":"Allentown","key":"allentown","ticketCount":36915},"geometry":{"type":"Polygon","coordinates":[[[-78.878,42.897],[-78.868,42.897],[-78.868,42.891],[-78.872,42.888],[-78.878,42.888],[-78.88,42.892],[-78.878,42.897]]]}},{"type":"Feature","properties":{"name":"Elmwood Village","key":"elmwood-village","ticketCount":14413},"geometry":{"type":"Polygon","coordinates":[[[-78.882,42.91],[-78.874,42.91],[-78.872,42.905],[-78.872,42.897],[-78.878,42.897],[-78.882,42.897],[-78.884,42.903],[-78.882,42.91]]]}},{"type":"Feature","properties":{"name":"Downtown / Canalside","key":"downtown","ticketCount":110323},"geometry":{"type":"Polygon","coordinates":[[[-78.882,42.888],[-78.868,42.888],[-78.866,42.88],[-78.868,42.872],[-78.878,42.87],[-78.886,42.873],[-78.887,42.882],[-78.882,42.888]]]}},{"type":"Feature","properties":{"name":"Hertel","key":"hertel","ticketCount":58988},"geometry":{"type":"Polygon","coordinates":[[[-78.898,42.932],[-78.872,42.932],[-78.87,42.926],[-78.872,42.922],[-78.882,42.92],[-78.898,42.92],[-78.9,42.926],[-78.898,42.932]]]}},{"type":"Feature","properties":{"name":"North Buffalo","key":"north-buffalo","ticketCount":151398},"geometry":{"type":"Polygon","coordinates":[[[-78.9,42.965],[-78.86,42.965],[-78.858,42.95],[-78.86,42.932],[-78.872,42.932],[-78.898,42.932],[-78.902,42.945],[-78.9,42.965]]]}},{"type":"Feature","properties":{"name":"West Side","key":"west-side","ticketCount":8232},"geometry":{"type":"Polygon","coordinates":[[[-78.91,42.91],[-78.888,42.91],[-78.884,42.903],[-78.882,42.897],[-78.886,42.882],[-78.896,42.875],[-78.906,42.876],[-78.912,42.885],[-78.912,42.9],[-78.91,42.91]]]}},{"type":"Feature","properties":{"name":"East Side","key":"east-side","ticketCount":52546},"geometry":{"type":"Polygon","coordinates":[[[-78.866,42.92],[-78.836,42.92],[-78.832,42.906],[-78.832,42.888],[-78.84,42.88],[-78.86,42.878],[-78.866,42.882],[-78.866,42.895],[-78.862,42.91],[-78.866,42.92]]]}},{"type":"Feature","properties":{"name":"South Buffalo","key":"south-buffalo","ticketCount":5361},"geometry":{"type":"Polygon","coordinates":[[[-78.882,42.872],[-78.868,42.872],[-78.856,42.87],[-78.84,42.86],[-78.838,42.848],[-78.845,42.838],[-78.862,42.834],[-78.878,42.836],[-78.888,42.848],[-78.888,42.862],[-78.882,42.872]]]}},{"type":"Feature","properties":{"name":"University Heights","key":"university-heights","ticketCount":20729},"geometry":{"type":"Polygon","coordinates":[[[-78.84,42.94],[-78.82,42.94],[-78.816,42.93],[-78.818,42.92],[-78.832,42.916],[-78.842,42.918],[-78.844,42.928],[-78.84,42.94]]]}}]}